*******************************************************************************
Ephemeris / WWW_USER Thu May 23 08:24:38 2024 Pasadena, USA      / Horizons    
*******************************************************************************
Target body name: (2018 VS1)                      {source: JPL#4}
Center body name: Earth (399)                     {source: DE441}
Center-site name: Gemini South Obs., Cerro Pachon
*******************************************************************************
Start time      : A.D. 2018-Oct-02 22:53:00.0000 UT      
Stop  time      : A.D. 2018-Oct-03 10:10:00.0000 UT      
Step-size       : 1 minutes
*******************************************************************************
Target pole/equ : undefined
Target radii    : undefined                                                    
Center geodetic : 289.2634, -30.2406227, 2.71233  {E-lon(deg),Lat(deg),Alt(km)}
Center cylindric: 289.2634,5517.21435,-3194.81213 {E-lon(deg),Dxy(km),Dz(km)}
Center pole/equ : ITRF93                          {East-longitude positive}
Center radii    : 6378.137, 6378.137, 6356.752 km {Equator_a, b, pole_c}       
Target primary  : Sun
Vis. interferer : MOON (R_eq= 1737.400) km        {source: DE441}
Rel. light bend : Sun                             {source: DE441}
Rel. lght bnd GM: 1.3271E+11 km^3/s^2                                          
Small-body perts: Yes                             {source: SB441-N16}
Atmos refraction: NO (AIRLESS)
RA format       : HMS
Time format     : CAL 
Calendar mode   : Mixed Julian/Gregorian
RTS-only print  : NO       
EOP file        : eop.240522.p240815                                           
EOP coverage    : DATA-BASED 1962-JAN-20 TO 2024-MAY-22. PREDICTS-> 2024-AUG-14
Units conversion: 1 au= 149597870.700 km, c= 299792.458 km/s, 1 day= 86400.0 s 
Table cut-offs 1: Elevation (-90.0deg=NO ),Airmass (>38.000=NO), Daylight (YES)
Table cut-offs 2: Solar elongation (  0.0,180.0=NO ),Local Hour Angle( 0.0=NO )
Table cut-offs 3: RA/DEC angular rate (     0.0=NO )                           
*******************************************************************************
Initial IAU76/J2000 heliocentric ecliptic osculating elements (au, days, deg.):
  EPOCH=  2458427.5 ! 2018-Nov-05.00 (TDB)         Residual RMS= .21634        
   EC= .3907275528854954   QR= .7806320880190512   TP= 2458486.1030618688      
   OM= 55.95483604725189   W=  67.17004921097404   IN= 3.601110299269385       
  Equivalent ICRF heliocentric cartesian coordinates (au, au/d):
   X= 7.595935200506908E-01  Y= 6.354459268576240E-01  Z= 2.586666727482118E-01
  VX=-1.643099138746886E-02 VY= 7.530892270769961E-03 VZ= 4.533522122669557E-03
Asteroid physical parameters (km, seconds, rotational period in hours):        
   GM= n.a.                RAD= n.a.               ROTPER= n.a.                
   H= 26.6                 G= .150                 B-V= n.a.                   
                           ALBEDO= n.a.            STYP= n.a.                  
*******************************************************************************
 Date__(UT)__HR:MN     R.A._________(ICRF)_________DEC
******************************************************
$$SOE
 2018-Oct-03 05:02     02 38 49.406449 +03 48 19.83483
 2018-Oct-03 05:03     02 38 49.425386 +03 48 19.61853
 2018-Oct-03 05:04     02 38 49.444308 +03 48 19.40218
 2018-Oct-03 05:05     02 38 49.463214 +03 48 19.18580
 2018-Oct-03 05:06     02 38 49.482104 +03 48 18.96936
 2018-Oct-03 05:07     02 38 49.500979 +03 48 18.75289
 2018-Oct-03 05:08     02 38 49.519840 +03 48 18.53637
 2018-Oct-03 05:09     02 38 49.538685 +03 48 18.31980
 2018-Oct-03 05:10     02 38 49.557516 +03 48 18.10319
 2018-Oct-03 05:11     02 38 49.576332 +03 48 17.88654
 2018-Oct-03 05:12     02 38 49.595134 +03 48 17.66984
 2018-Oct-03 05:13     02 38 49.613921 +03 48 17.45310
 2018-Oct-03 05:14     02 38 49.632694 +03 48 17.23631
 2018-Oct-03 05:15     02 38 49.651454 +03 48 17.01948
 2018-Oct-03 05:16     02 38 49.670199 +03 48 16.80260
 2018-Oct-03 05:17     02 38 49.688931 +03 48 16.58568
 2018-Oct-03 05:18     02 38 49.707649 +03 48 16.36871
 2018-Oct-03 05:19     02 38 49.726354 +03 48 16.15170
 2018-Oct-03 05:20     02 38 49.745046 +03 48 15.93464
 2018-Oct-03 05:21     02 38 49.763725 +03 48 15.71754
 2018-Oct-03 05:22     02 38 49.782390 +03 48 15.50039
 2018-Oct-03 05:23     02 38 49.801043 +03 48 15.28320
 2018-Oct-03 05:24     02 38 49.819684 +03 48 15.06596
 2018-Oct-03 05:25     02 38 49.838312 +03 48 14.84868
 2018-Oct-03 05:26     02 38 49.856927 +03 48 14.63135
 2018-Oct-03 05:27     02 38 49.875531 +03 48 14.41397
 2018-Oct-03 05:28     02 38 49.894123 +03 48 14.19655
 2018-Oct-03 05:29     02 38 49.912702 +03 48 13.97909
 2018-Oct-03 05:30     02 38 49.931270 +03 48 13.76158
 2018-Oct-03 05:31     02 38 49.949827 +03 48 13.54402
 2018-Oct-03 05:32     02 38 49.968372 +03 48 13.32642
 2018-Oct-03 05:33     02 38 49.986906 +03 48 13.10877
 2018-Oct-03 05:34     02 38 50.005429 +03 48 12.89108
 2018-Oct-03 05:35     02 38 50.023941 +03 48 12.67334
 2018-Oct-03 05:36     02 38 50.042443 +03 48 12.45556
 2018-Oct-03 05:37     02 38 50.060933 +03 48 12.23773
 2018-Oct-03 05:38     02 38 50.079414 +03 48 12.01985
 2018-Oct-03 05:39     02 38 50.097884 +03 48 11.80193
 2018-Oct-03 05:40     02 38 50.116344 +03 48 11.58396
 2018-Oct-03 05:41     02 38 50.134794 +03 48 11.36595
 2018-Oct-03 05:42     02 38 50.153234 +03 48 11.14789
 2018-Oct-03 05:43     02 38 50.171665 +03 48 10.92978
 2018-Oct-03 05:44     02 38 50.190086 +03 48 10.71163
 2018-Oct-03 05:45     02 38 50.208498 +03 48 10.49343
 2018-Oct-03 05:46     02 38 50.226901 +03 48 10.27519
 2018-Oct-03 05:47     02 38 50.245294 +03 48 10.05690
 2018-Oct-03 05:48     02 38 50.263679 +03 48 09.83856
 2018-Oct-03 05:49     02 38 50.282056 +03 48 09.62018
 2018-Oct-03 05:50     02 38 50.300423 +03 48 09.40175
 2018-Oct-03 05:51     02 38 50.318783 +03 48 09.18328
 2018-Oct-03 05:52     02 38 50.337134 +03 48 08.96475
 2018-Oct-03 05:53     02 38 50.355477 +03 48 08.74619
 2018-Oct-03 05:54     02 38 50.373812 +03 48 08.52757
 2018-Oct-03 05:55     02 38 50.392140 +03 48 08.30891
 2018-Oct-03 05:56     02 38 50.410460 +03 48 08.09020
 2018-Oct-03 05:57     02 38 50.428772 +03 48 07.87145
 2018-Oct-03 05:58     02 38 50.447078 +03 48 07.65265
 2018-Oct-03 05:59     02 38 50.465376 +03 48 07.43380
 2018-Oct-03 06:00     02 38 50.483667 +03 48 07.21491
 2018-Oct-03 06:01     02 38 50.501952 +03 48 06.99597
 2018-Oct-03 06:02     02 38 50.520230 +03 48 06.77698
 2018-Oct-03 06:03     02 38 50.538502 +03 48 06.55795
 2018-Oct-03 06:04     02 38 50.556767 +03 48 06.33887
 2018-Oct-03 06:05     02 38 50.575026 +03 48 06.11974
 2018-Oct-03 06:06     02 38 50.593279 +03 48 05.90057
 2018-Oct-03 06:07     02 38 50.611527 +03 48 05.68135
 2018-Oct-03 06:08     02 38 50.629769 +03 48 05.46208
 2018-Oct-03 06:09     02 38 50.648005 +03 48 05.24277
 2018-Oct-03 06:10  m  02 38 50.666236 +03 48 05.02341
 2018-Oct-03 06:11  m  02 38 50.684462 +03 48 04.80400
 2018-Oct-03 06:12  m  02 38 50.702683 +03 48 04.58455
 2018-Oct-03 06:13  m  02 38 50.720899 +03 48 04.36505
 2018-Oct-03 06:14  m  02 38 50.739111 +03 48 04.14550
 2018-Oct-03 06:15  m  02 38 50.757318 +03 48 03.92591
 2018-Oct-03 06:16  m  02 38 50.775520 +03 48 03.70627
 2018-Oct-03 06:17  m  02 38 50.793719 +03 48 03.48658
 2018-Oct-03 06:18  m  02 38 50.811913 +03 48 03.26684
 2018-Oct-03 06:19  m  02 38 50.830104 +03 48 03.04706
 2018-Oct-03 06:20  m  02 38 50.848291 +03 48 02.82723
 2018-Oct-03 06:21  m  02 38 50.866475 +03 48 02.60736
 2018-Oct-03 06:22  m  02 38 50.884655 +03 48 02.38744
 2018-Oct-03 06:23  m  02 38 50.902832 +03 48 02.16747
 2018-Oct-03 06:24  m  02 38 50.921006 +03 48 01.94745
 2018-Oct-03 06:25  m  02 38 50.939177 +03 48 01.72739
 2018-Oct-03 06:26  m  02 38 50.957345 +03 48 01.50728
 2018-Oct-03 06:27  m  02 38 50.975511 +03 48 01.28712
 2018-Oct-03 06:28  m  02 38 50.993674 +03 48 01.06692
 2018-Oct-03 06:29  m  02 38 51.011835 +03 48 00.84667
 2018-Oct-03 06:30  m  02 38 51.029995 +03 48 00.62637
 2018-Oct-03 06:31  m  02 38 51.048152 +03 48 00.40602
 2018-Oct-03 06:32  m  02 38 51.066307 +03 48 00.18563
 2018-Oct-03 06:33  m  02 38 51.084461 +03 47 59.96519
 2018-Oct-03 06:34  m  02 38 51.102614 +03 47 59.74471
 2018-Oct-03 06:35  m  02 38 51.120765 +03 47 59.52417
 2018-Oct-03 06:36  t  02 38 51.138916 +03 47 59.30359
 2018-Oct-03 06:37  m  02 38 51.157065 +03 47 59.08297
 2018-Oct-03 06:38  m  02 38 51.175214 +03 47 58.86229
 2018-Oct-03 06:39  m  02 38 51.193362 +03 47 58.64157
 2018-Oct-03 06:40  m  02 38 51.211510 +03 47 58.42081
 2018-Oct-03 06:41  m  02 38 51.229657 +03 47 58.19999
 2018-Oct-03 06:42  m  02 38 51.247804 +03 47 57.97913
 2018-Oct-03 06:43  m  02 38 51.265952 +03 47 57.75822
 2018-Oct-03 06:44  m  02 38 51.284099 +03 47 57.53727
 2018-Oct-03 06:45  m  02 38 51.302247 +03 47 57.31627
 2018-Oct-03 06:46  m  02 38 51.320396 +03 47 57.09522
 2018-Oct-03 06:47  m  02 38 51.338545 +03 47 56.87412
 2018-Oct-03 06:48  m  02 38 51.356696 +03 47 56.65298
 2018-Oct-03 06:49  m  02 38 51.374847 +03 47 56.43179
 2018-Oct-03 06:50  m  02 38 51.392999 +03 47 56.21055
 2018-Oct-03 06:51  m  02 38 51.411153 +03 47 55.98927
 2018-Oct-03 06:52  m  02 38 51.429309 +03 47 55.76794
 2018-Oct-03 06:53  m  02 38 51.447466 +03 47 55.54656
 2018-Oct-03 06:54  m  02 38 51.465625 +03 47 55.32514
 2018-Oct-03 06:55  m  02 38 51.483786 +03 47 55.10367
 2018-Oct-03 06:56  m  02 38 51.501949 +03 47 54.88215
 2018-Oct-03 06:57  m  02 38 51.520115 +03 47 54.66059
 2018-Oct-03 06:58  m  02 38 51.538283 +03 47 54.43898
 2018-Oct-03 06:59  m  02 38 51.556454 +03 47 54.21732
 2018-Oct-03 07:00  m  02 38 51.574627 +03 47 53.99562
 2018-Oct-03 07:01  m  02 38 51.592804 +03 47 53.77387
 2018-Oct-03 07:02  m  02 38 51.610984 +03 47 53.55207
 2018-Oct-03 07:03  m  02 38 51.629167 +03 47 53.33022
 2018-Oct-03 07:04  m  02 38 51.647354 +03 47 53.10833
